{
  "type": "FeatureCollection",
  "features": [
    {"type":"Feature","properties":{"dam_id":"DAM_001","name":"Tehri Catchment"},"geometry":{"type":"Polygon","coordinates":[[[78.0,30.0],[79.0,30.0],[79.0,31.0],[78.0,31.0],[78.0,30.0]]]}},
    {"type":"Feature","properties":{"dam_id":"DAM_002","name":"Bhakra Catchment"},"geometry":{"type":"Polygon","coordinates":[[[75.5,31.0],[77.0,31.0],[77.0,32.5],[75.5,32.5],[75.5,31.0]]]}},
    {"type":"Feature","properties":{"dam_id":"DAM_003","name":"Hirakud Catchment"},"geometry":{"type":"Polygon","coordinates":[[[82.5,20.5],[85.0,20.5],[85.0,22.5],[82.5,22.5],[82.5,20.5]]]}},
    {"type":"Feature","properties":{"dam_id":"DAM_004","name":"Nagarjuna Sagar Catchment"},"geometry":{"type":"Polygon","coordinates":[[[78.0,15.5],[80.5,15.5],[80.5,17.5],[78.0,17.5],[78.0,15.5]]]}},
    {"type":"Feature","properties":{"dam_id":"DAM_005","name":"Sardar Sarovar Catchment"},"geometry":{"type":"Polygon","coordinates":[[[72.5,21.0],[75.0,21.0],[75.0,23.0],[72.5,23.0],[72.5,21.0]]]}},
    {"type":"Feature","properties":{"dam_id":"DAM_007","name":"Idukki Catchment"},"geometry":{"type":"Polygon","coordinates":[[[76.5,9.5],[77.5,9.5],[77.5,10.5],[76.5,10.5],[76.5,9.5]]]}},
    {"type":"Feature","properties":{"dam_id":"DAM_008","name":"Koyna Catchment"},"geometry":{"type":"Polygon","coordinates":[[[73.0,17.0],[74.5,17.0],[74.5,18.0],[73.0,18.0],[73.0,17.0]]]}},
    {"type":"Feature","properties":{"dam_id":"DAM_010","name":"Mullaperiyar Catchment"},"geometry":{"type":"Polygon","coordinates":[[[76.5,9.0],[77.5,9.0],[77.5,10.0],[76.5,10.0],[76.5,9.0]]]}},
    {"type":"Feature","properties":{"dam_id":"DAM_014","name":"Pong Catchment"},"geometry":{"type":"Polygon","coordinates":[[[75.0,31.5],[76.5,31.5],[76.5,33.0],[75.0,33.0],[75.0,31.5]]]}},
    {"type":"Feature","properties":{"dam_id":"DAM_021","name":"Rishi Ganga Catchment"},"geometry":{"type":"Polygon","coordinates":[[[79.0,30.0],[80.5,30.0],[80.5,31.0],[79.0,31.0],[79.0,30.0]]]}},
    {"type":"Feature","properties":{"dam_id":"DAM_022","name":"Phuktal Catchment"},"geometry":{"type":"Polygon","coordinates":[[[76.0,32.5],[77.5,32.5],[77.5,34.0],[76.0,34.0],[76.0,32.5]]]}},
    {"type":"Feature","properties":{"dam_id":"DAM_023","name":"Chamoli Catchment"},"geometry":{"type":"Polygon","coordinates":[[[79.0,30.0],[80.5,30.0],[80.5,31.0],[79.0,31.0],[79.0,30.0]]]}},
    {"type":"Feature","properties":{"dam_id":"DAM_024","name":"Kosi Catchment"},"geometry":{"type":"Polygon","coordinates":[[[86.0,25.5],[87.5,25.5],[87.5,27.5],[86.0,27.5],[86.0,25.5]]]}},
    {"type":"Feature","properties":{"dam_id":"DAM_028","name":"Upper Subansiri Catchment"},"geometry":{"type":"Polygon","coordinates":[[[93.0,27.0],[95.0,27.0],[95.0,29.0],[93.0,29.0],[93.0,27.0]]]}},
    {"type":"Feature","properties":{"dam_id":"DAM_030","name":"Pench Catchment"},"geometry":{"type":"Polygon","coordinates":[[[78.5,21.5],[80.0,21.5],[80.0,23.0],[78.5,23.0],[78.5,21.5]]]}}
  ]
}
